[{"OBJECT_NAME":"STARLINK-1911","OBJECT_ID":"2020-074L","EPOCH":"2026-03-10T00:00:02.999808","MEAN_MOTION":15.7196626,"ECCENTRICITY":0.00010753,"INCLINATION":53.0465,"RA_OF_ASC_NODE":276.9224,"ARG_OF_PERICENTER":50.1756,"MEAN_ANOMALY":209.8955,"EPHEMERIS_TYPE":0,"CLASSIFICATION_TYPE":"U","NORAD_CAT_ID":46749,"ELEMENT_SET_NO":999,"REV_AT_EPOCH":580,"BSTAR":0.00055147557,"MEAN_MOTION_DOT":0.00073486,"MEAN_MOTION_DDOT":0},{"OBJECT_NAME":"STARLINK-11586 [DTC]","OBJECT_ID":"2025-032E","EPOCH":"2026-03-09T08:55:07.339872","MEAN_MOTION":15.71109829,"ECCENTRICITY":0.0002356,"INCLINATION":42.9983,"RA_OF_ASC_NODE":197.2702,"ARG_OF_PERICENTER":257.2025,"MEAN_ANOMALY":102.858,"EPHEMERIS_TYPE":0,"CLASSIFICATION_TYPE":"U","NORAD_CAT_ID":63009,"ELEMENT_SET_NO":999,"REV_AT_EPOCH":6216,"BSTAR":0.0022281748,"MEAN_MOTION_DOT":0.00299375,"MEAN_MOTION_DDOT":0}]
